COMMENT,ORIGINATOR,NORAD_CAT_ID,OBJECT_NAME,OBJECT_TYPE,CLASSIFICATION_TYPE,INTLDES,EPOCH,EPOCH_MICROSECONDS,MEAN_MOTION,ECCENTRICITY,INCLINATION,RA_OF_ASC_NODE,ARG_OF_PERICENTER,MEAN_ANOMALY,EPHEMERIS_TYPE,ELEMENT_SET_NO,REV_AT_EPOCH,BSTAR,MEAN_MOTION_DOT,MEAN_MOTION_DDOT,FILE,TLE_LINE0,TLE_LINE1,TLE_LINE2,OBJECT_ID,OBJECT_NUMBER,SEMIMAJOR_AXIS,PERIOD,APOGEE,PERIGEE
"GENERATED VIA SPACETRACK.ORG API","JSPOC","10120","COSMOS 923","PAYLOAD","U","77059A","2016-01-12 12:30:41","978880","14.3184175","0.0014183","74.049","126.1563","262.4786","97.4753","0","999","1094","4.3115e-05","8.9e-07","0","1979403","0 COSMOS 923","1 10120U 77059A   16012.52131920  .00000089  00000-0  43115-4 0  9990","2 10120  74.0490 126.1563 0014183 262.4786  97.4753 14.31841750 10949","1977-059A","10120","7163.718","100.569","795.743","775.422"
"GENERATED VIA SPACETRACK.ORG API","JSPOC","31598","SKYMED 1","PAYLOAD","U","07023A","2016-01-12 12:30:44","137152","14.82155185","0.0001318","97.8785","198.3695","84.4432","275.6946","0","999","46517","-1.9735e-05","-2.09e-06","0","1979467","0 SKYMED 1","1 31598U 07023A   16012.52134418 -.00000209  00000-0 -19735-4 0  9998","2 31598  97.8785 198.3695 0001318  84.4432 275.6946 14.82155185465173","2007-023A","31598","7000.666","97.155","623.454","621.608"
"GENERATED VIA SPACETRACK.ORG API","JSPOC","25417","ORBCOMM FM 16","PAYLOAD","U","98046E","2016-01-12 12:30:49","312512","14.32159502","0.000251","44.9971","192.0462","62.2517","297.8583","0","999","91022","0.00012293","1.93e-06","0","1979420","0 ORBCOMM FM 16","1 25417U 98046E   16012.52140408  .00000193  00000-0  12293-3 0  9993","2 25417  44.9971 192.0462 0002510  62.2517 297.8583 14.32159502910228","1998-046E","25417","7162.658","100.547","786.321","782.725"
"GENERATED VIA SPACETRACK.ORG API","JSPOC","40898","S-CUBE","PAYLOAD","U","98067GY","2016-01-12 12:30:57","547296","15.62149805","0.00073","51.6399","116.2327","350.3235","9.7618","0","999","1813","0.0004898","0.00043615","0","1979429","0 S-CUBE","1 40898U 98067GY  16012.52149939  .00043615  00000-0  48980-3 0  9992","2 40898  51.6399 116.2327 0007300 350.3235   9.7618 15.62149805 18132","1998-067GY","40898","6759.585","92.180","386.384","376.515"
"GENERATED VIA SPACETRACK.ORG API","JSPOC","7209","METEOR 1-16","PAYLOAD","U","74011A","2016-01-12 12:31:33","387744","14.13810328","0.0040088","81.2273","168.4039","86.8488","273.727","0","999","15722","5.2178e-05","1.13e-06","0","1979480","0 METEOR 1-16","1 07209U 74011A   16012.52191421  .00000113  00000-0  52178-4 0  9998","2 07209  81.2273 168.4039 0040088  86.8488 273.7270 14.13810328157222","1974-011A","7209","7224.499","101.852","875.325","817.402"
"GENERATED VIA SPACETRACK.ORG API","JSPOC","27464","COSMOS 2390","PAYLOAD","U","02036A","2016-01-12 12:31:43","696992","12.44558037","0.0024491","82.4804","206.2208","309.7521","50.1406","0","999","61403","6.572e-05","1.9e-07","0","1979496","0 COSMOS 2390","1 27464U 02036A   16012.52203353  .00000019  00000-0  65720-4 0  9991","2 27464  82.4804 206.2208 0024491 309.7521  50.1406 12.44558037614037","2002-036A","27464","7865.477","115.703","1506.605","1468.078"
"GENERATED VIA SPACETRACK.ORG API","JSPOC","10096","SL-14 R/B","ROCKET BODY","U","77055B","2016-01-12 12:31:50","292768","14.88400935","0.004236","75.8325","206.0792","95.7605","264.8417","0","999","8463","2.9295e-05","2.56e-06","0","1979438","0 SL-14 R/B","1 10096U 77055B   16012.52210987  .00000256  00000-0  29295-4 0  9998","2 10096  75.8325 206.0792 0042360  95.7605 264.8417 14.88400935 84636","1977-055B","10096","6981.068","96.748","632.505","573.361"
"GENERATED VIA SPACETRACK.ORG API","JSPOC","16182","SL-16 R/B","ROCKET BODY","U","85097B","2016-01-12 12:32:37","53312","14.16189739","0.0006811","71.003","25.5994","166.3165","1.5281","0","999","56236","0.00012088","1.92e-06","0","1979370","0 SL-16 R/B","1 16182U 85097B   16012.52265108  .00000192  00000-0  12088-3 0  9990","2 16182  71.0030  25.5994 0006811 166.3165   1.5281 14.16189739562367","1985-097B","16182","7216.404","101.681","843.184","833.354"
"GENERATED VIA SPACETRACK.ORG API","JSPOC","40136","LING QIAO","PAYLOAD","U","14051A","2016-01-12 12:32:39","862176","14.29608392","0.0020355","98.4497","21.8182","206.6709","153.343","0","999","7080","1.9483e-05","7e-08","0","1979495","0 LING QIAO","1 40136U 14051A   16012.52268359  .00000007  00000-0  19483-4 0  9991","2 40136  98.4497  21.8182 0020355 206.6709 153.3430 14.29608392 70802","2014-051A","40136","7171.177","100.726","807.639","778.445"
"GENERATED VIA SPACETRACK.ORG API","JSPOC","40130","FREGAT R/B","ROCKET BODY","U","14050C","2016-01-12 12:32:41","81280","2.05030199","0.2351637","49.996","60.6397","49.1814","329.0951","0","999","1042","0","-5.1e-07","0","1979855","0 FREGAT R/B","1 40130U 14050C   16012.52269770 -.00000051 +00000-0 +00000-0 0  9993","2 40130 049.9960 060.6397 2351637 049.1814 329.0951 02.05030199010427","2014-050C","40130","26173.187","702.335","25950.036","13640.069"
"GENERATED VIA SPACETRACK.ORG API","JSPOC","25994","TERRA","PAYLOAD","U","99068A","2016-01-12 12:32:45","923136","14.57108271","9.64e-05","98.2057","89.0592","88.7069","271.4244","0","999","85470","5.8257e-05","2.17e-06","0","1979415","0 TERRA","1 25994U 99068A   16012.52275374  .00000217  00000-0  58257-4 0  9997","2 25994  98.2057  89.0592 0000964  88.7069 271.4244 14.57108271854706","1999-068A","25994","7080.663","98.825","703.211","701.845"
"GENERATED VIA SPACETRACK.ORG API","JSPOC","24435","EXPRESS 2","PAYLOAD","U","96058A","2016-01-12 12:32:45","572352","1.00212385","0.0009209","13.8222","28.1394","239.9364","114.0246","0","999","7061","0","-1.64e-06","0","1979855","0 EXPRESS 2","1 24435U 96058A   16012.52274968 -.00000164 +00000-0 +00000-0 0  9991","2 24435 013.8222 028.1394 0009209 239.9364 114.0246 01.00212385070615","1996-058A","24435","42181.392","1436.948","35842.102","35764.412"
"GENERATED VIA SPACETRACK.ORG API","JSPOC","20","VANGUARD 3","PAYLOAD","U","59007A","2016-01-12 12:32:52","752192","11.55127462","0.1669733","33.3472","183.9756","327.0413","23.6093","0","999","4344","9.8574e-05","2.57e-06","0","1979428","0 VANGUARD 3","1 00020U 59007A   16012.52283278  .00000257  00000-0  98574-4 0  9991","2 00020  33.3472 183.9756 1669733 327.0413  23.6093 11.55127462 43442","1959-007A","20","8266.377","124.661","3268.506","507.978"
"GENERATED VIA SPACETRACK.ORG API","JSPOC","39189","O3B FM4","PAYLOAD","U","13031B","2016-01-12 12:32:56","558112","5.00116472","0.0004836","0.031","343.2643","13.6513","3.0796","0","999","4660","0","-1.5e-07","0","1979855","0 O3B FM4","1 39189U 13031B   16012.52287683 -.00000015 +00000-0 +00000-0 0  9996","2 39189 000.0310 343.2643 0004836 013.6513 003.0796 05.00116472046608","2013-031B","39189","14444.008","287.932","8072.858","8058.888"
"GENERATED VIA SPACETRACK.ORG API","JSPOC","17527","MOS 1A (MOMO 1)","PAYLOAD","U","87018A","2016-01-12 12:32:59","277120","14.02427876","0.000806","99.2632","11.8084","286.7125","183.5817","0","999","47633","0.00019303","2.5e-06","0","1979446","0 MOS 1A (MOMO 1)","1 17527U 87018A   16012.52290830  .00000250  00000-0  19303-3 0  9991","2 17527  99.2632  11.8084 0008060 286.7125 183.5817 14.02427876476339","1987-018A","17527","7263.536","102.679","891.256","879.547"
"GENERATED VIA SPACETRACK.ORG API","JSPOC","33314","RAPIDEYE 1","PAYLOAD","U","08040C","2016-01-12 12:32:59","879328","14.79966289","0.0022584","97.8587","99.5139","259.13","100.7375","0","999","39820","3.5616e-05","2.18e-06","0","1979472","0 RAPIDEYE 1","1 33314U 08040C   16012.52291527  .00000218  00000-0  35616-4 0  9995","2 33314  97.8587  99.5139 0022584 259.1300 100.7375 14.79966289398203","2008-040C","33314","7007.567","97.299","645.258","613.606"
"GENERATED VIA SPACETRACK.ORG API","JSPOC","16614","VIKING","PAYLOAD","U","86019B","2016-01-12 12:33:04","832640","5.50542091","0.4686237","98.8236","291.1446","64.543","67.7878","0","999","60061","0.0010195","1.46e-06","0","1979855","0 VIKING","1 16614U 86019B   16012.52297260 +.00000146 +00000-0 +10195-2 0  9994","2 16614 098.8236 291.1446 4686237 064.5430 067.7878 05.50542091600618","1986-019B","16614","13547.988","261.560","13518.762","820.945"
"GENERATED VIA SPACETRACK.ORG API","JSPOC","19505","SL-12 R/B(2)","ROCKET BODY","U","88085E","2016-01-12 12:33:16","519968","2.13369556","0.0009655","64.9756","82.2744","222.9992","82.0606","0","999","21286","0","3e-08","0","1979407","0 SL-12 R/B(2)","1 19505U 88085E   16012.52310787  .00000003  00000-0  00000+0 0  9994","2 19505  64.9756  82.2744 0009655 222.9992  82.0606  2.13369556212867","1988-085E","19505","25486.696","674.885","19133.168","19083.953"
"GENERATED VIA SPACETRACK.ORG API","JSPOC","39135","BEESAT 3","PAYLOAD","U","13015F","2016-01-12 12:33:20","863296","15.12871163","0.0015863","64.8731","110.2122","231.5518","128.4183","0","999","15031","0.00035163","6.048e-05","0","1979481","0 BEESAT 3","1 39135U 13015F   16012.52315814  .00006048  00000-0  35163-3 0  9999","2 39135  64.8731 110.2122 0015863 231.5518 128.4183 15.12871163150311","2013-015F","39135","6905.586","95.183","538.405","516.496"
"GENERATED VIA SPACETRACK.ORG API","JSPOC","39269","POPACS 2","PAYLOAD","U","13055E","2016-01-12 12:33:23","807808","14.14825535","0.0721379","81.0176","195.7927","318.6923","36.175","0","999","11738","0.00020475","6.649e-05","0","1979433","0 POPACS 2","1 39269U 13055E   16012.52319222  .00006649  00000-0  20475-3 0  9995","2 39269  81.0176 195.7927 0721379 318.6923  36.1750 14.14825535117385","2013-055E","39269","7221.042","101.779","1363.818","321.996"
